ORBVIEW 2 (SEASTAR)     
1 24883U 97037A   25336.31997395  .00000477  00000+0  18238-3 0  9998
2 24883  98.8452 133.1324 0002187  13.5345 346.5898 14.35404265494508
SL-16 R/B               
1 25400U 98043G   25336.27368021  .00000119  00000+0  68719-4 0  9998
2 25400  98.8109 284.0340 0008924 300.6094  59.4205 14.26021467425104
SL-16 R/B               
1 25407U 98045B   25336.31089854  .00000166  00000+0  10782-3 0  9994
2 25407  71.0126  26.3585 0007544 192.5452 167.5484 14.16174801413314
ISS (ZARYA)             
1 25544U 98067A   25336.09225230  .00009217  00000+0  17381-3 0  9993
2 25544  51.6314 195.1903 0003638 193.8265 166.2625 15.49237019541205
CZ-4B R/B               
1 25732U 99025C   25336.09481477  .00000126  00000+0  82067-4 0  9998
2 25732  98.6784  17.6122 0036076 265.4505 148.5957 14.18239397374337
OKEAN-O                 
1 25860U 99039A   25336.17606576  .00000928  00000+0  12919-3 0  9991
2 25860  97.9618  31.9685 0000853  76.3313 283.7994 14.80131216419962
SL-16 R/B               
1 25861U 99039B   25336.11377153  .00000788  00000+0  10711-3 0  9994
2 25861  98.0142  30.2637 0014150 209.6434 150.3978 14.81560918422417
DELTA 2 R/B             
1 25876U 99041E   25336.23337614  .00001612  00000+0  29898-3 0  9997
2 25876  51.7621 330.3852 0504836  60.8043 304.2418 14.11356800349268
HELIOS 1B               
1 25977U 99064A   25336.30792728  .00002724  00000+0  30905-3 0  9999
2 25977  98.1755 230.6643 0002217  56.6808 303.4619 14.87210416670784
TERRA                   
1 25994U 99068A   25336.25658005  .00000720  00000+0  15611-3 0  9996
2 25994  97.9764  28.3249 0003367 118.9781 310.1890 14.60932968380859
SL-16 R/B               
1 26070U 00006B   25336.30106258  .00000347  00000+0  20062-3 0  9991
2 26070  71.0027 302.6060 0017880 323.2810  36.7087 14.15806827334771
TITAN 4B R/B            
1 26474U 00047B   25336.26839309  .00004568  00000+0  29410-3 0  9994
2 26474  67.9896 314.2616 0039742 156.9555 203.3388 15.08655920378213
